LEGION 1                
1 59625U 24081A   24128.77033858  .00006883  00000+0  36257-3 0  9990
2 59625  97.5778 199.8961 0004801 138.6146 221.5451 15.15917544   751
